ONEWEB-0403             
1 50483U 21132Q   25021.63334488  .00000010  00000+0 -85812-5 0  9998
2 50483  87.9074  77.2172 0001883  95.8131 264.3216 13.18684642154175
ONEWEB-0404             
1 50484U 21132R   25021.83793410 -.00000549  00000+0 -15862-2 0  9998
2 50484  87.8910 122.9906 0001630  92.7305 267.4009 13.11413039149942
ONEWEB-0405             
1 50485U 21132S   25021.64914949  .00000064  00000+0  12988-3 0  9997
2 50485  87.9074  77.2039 0001501  99.9445 260.1856 13.18683936154572
ONEWEB-0406             
1 50486U 21132T   25021.63808683  .00000032  00000+0  48763-4 0  9990
2 50486  87.9075  77.2225 0002319  88.1371 272.0027 13.18684245154203
ONEWEB-0407             
1 50487U 21132U   25021.63175958  .00000030  00000+0  44472-4 0  9994
2 50487  87.9073  77.2156 0001674  98.3378 261.7944 13.18684053154141
ONEWEB-0409             
1 50488U 21132V   25022.21773397 -.00000434  00000+0 -12603-2 0  9990
2 50488  87.8900 122.8925 0001869  98.0138 262.1202 13.11415732149895
ONEWEB-0412             
1 50489U 21132W   25021.69656720  .00000002  00000+0 -26525-4 0  9992
2 50489  87.9077  77.2131 0001427 104.9797 255.1493 13.18683665154240
ONEWEB-0413             
1 50490U 21132X   25021.70130891 -.00000021  00000+0 -86459-4 0  9996
2 50490  87.9077  77.2239 0001556 107.1321 252.9982 13.18683734154180
